61P/Shajn-Schaldach,e,5.9989,162.9881,221.9047,3.684659,0.1393504,0.42378668,233.3648,04/29.0/2020,2000,g  6.0,10.0
# From MPC109147
62P/Tsuchinshan,e,7.5478,85.7682,32.2966,3.328759,0.1622858,0.65068220,139.9025,04/29.0/2020,2000,g  8.0,10.0
# From MPC 84320
63P/Wild,e,19.7404,358.0159,169.1570,5.604316,0.0742883,0.64914830,191.5733,04/29.0/2020,2000,g 10.5,6.0
# From MPC111774
64P/Swift-Gehrels,e,8.9503,300.0014,97.1055,4.455439,0.1048017,0.68753294,56.8130,04/29.0/2020,2000,g  9.5,12.0
# From MPC104795
65P/Gunn,e,9.1834,62.0237,213.7683,3.883696,0.1287764,0.24993362,119.0256,04/29.0/2020,2000,g  5.0,6.0
# From MPC109147
66P/du Toit,e,18.6632,21.8769,257.2843,6.061704,0.0660407,0.78697872,46.9406,04/29.0/2020,2000,g  9.0,4.0
# From MPC 89011
67P/Churyumov-Gerasimenko,e,3.8886,36.8648,21.7961,3.454669,0.1534951,0.65222745,275.4079,04/29.0/2020,2000,g 11.0,4.0
# From MPC 75716
68P/Klemola,e,11.1108,175.0815,153.0653,4.948674,0.0895305,0.63749873,15.3949,04/29.0/2020,2000,g 10.0,4.0
# From MPC114607
69P/Taylor,e,22.0330,104.8312,343.5241,3.889893,0.1284688,0.41307106,52.3747,04/29.0/2020,2000,g  9.5,12.0
# From MPC 92276
70P/Kojima,e,6.5982,119.2677,1.8648,3.675152,0.1398914,0.45334414,282.5997,04/29.0/2020,2000,g 11.0,6.0
# From MPC107051
71P/Clark,e,9.4418,59.4394,209.0078,3.138116,0.1772967,0.49423220,183.2261,04/29.0/2020,2000,g  9.8,6.0
# From MPC 89011
72P/Denning-Fujikawa,e,10.9287,26.6904,346.6680,4.311845,0.1100802,0.81796207,234.1318,04/29.0/2020,2000,g 17.5,10.0
# From MPC106348
73P/Schwassmann-Wachmann,e,11.2348,69.6519,199.4356,3.093105,0.1811807,0.68573005,206.2960,04/29.0/2020,2000,g 11.5,6.0
# From MPC106348
73P-T/Schwassmann-Wachmann,e,11.2370,69.6545,199.4171,3.094665,0.1810438,0.68593320,206.1409,04/29.0/2020,2000,g 11.5,6.0
# From MPC102956
74P/Smirnova-Chernykh,e,6.6187,76.9969,90.5509,4.201379,0.1144501,0.15344781,91.6960,04/29.0/2020,2000,g  5.0,6.0
# From MPC118097
76P/West-Kohoutek-Ikemura,e,30.4567,84.1245,0.0141,3.474599,0.1521763,0.53815118,28.2851,04/29.0/2020,2000,g  8.0,12.0
# From MPC100283
77P/Longmore,e,24.3270,14.8012,196.8693,3.620153,0.1430915,0.35253374,207.0315,04/29.0/2020,2000,g  7.0,8.0
# From MPEC 2016-U66
78P/Gehrels,e,6.2486,210.5377,192.6617,3.740183,0.1362589,0.46170000,53.4614,04/29.0/2020,2000,g  9.0,4.0
# From MPC 94675
79P/du Toit-Hartley,e,3.1480,280.5243,281.8254,2.942742,0.1952432,0.61905899,115.9316,04/29.0/2020,2000,g 16.0,4.0
# From MPEC 2014-P41
80P/Peters-Hartley,e,29.9453,259.8222,339.2517,4.024268,0.1220882,0.59916210,243.5970,04/29.0/2020,2000,g  9.0,4.0
# From MPC105241
81P/Wild,e,3.2370,136.1062,41.7198,3.450150,0.1537967,0.53725525,212.2285,04/29.0/2020,2000,g  7.0,6.0
# From MPC 75717
82P/Gehrels,e,1.1284,239.3136,226.9278,4.137444,0.1171132,0.12179793,78.7313,04/29.0/2020,2000,g  5.0,8.0
# From MPC105241
84P/Giclas,e,7.5523,108.1748,281.5617,3.547200,0.1475284,0.51543631,354.7168,04/29.0/2020,2000,g  9.5,8.0
# From MPC109147
86P/Wild,e,15.4755,72.3760,179.3097,3.604194,0.1440429,0.37264771,266.4753,04/29.0/2020,2000,g 11.0,6.0
# From MPC105241
87P/Bus,e,2.6023,181.8619,24.9294,3.437721,0.1546316,0.38917683,358.4153,04/29.0/2020,2000,g  7.2,10.0
# From MPEC 2019-JE2
88P/Howell,e,4.3838,56.6854,235.9171,3.105418,0.1801042,0.56428202,332.8711,04/29.0/2020,2000,g 11.0,6.0
# From MPC100283
89P/Russell,e,12.0712,41.4180,250.2594,3.753900,0.1355127,0.40869102,166.7354,04/29.0/2020,2000,g 11.5,6.0
# From MPC107051
90P/Gehrels,e,9.6401,13.2163,29.1228,6.055971,0.0661345,0.50954765,69.1233,04/29.0/2020,2000,g  8.5,6.0
# From MPC105241
91P/Russell,e,14.0916,247.8283,354.7794,3.890440,0.1284417,0.33058556,335.0428,04/29.0/2020,2000,g  7.5,6.0
# From MPEC 2014-J58
92P/Sanguin,e,19.4756,181.3919,163.7099,5.345798,0.0797417,0.66038570,150.2718,04/29.0/2020,2000,g 12.0,6.0
# From NK 2707
93P/Lovas,e,12.2012,339.6252,74.8731,4.384929,0.1073397,0.61203773,124.0022,04/29.0/2020,2000,g  9.0,4.0
# From MPEC 2013-O31
94P/Russell,e,6.1879,70.8595,92.5186,3.506998,0.1500724,0.36471209,192.2039,04/29.0/2020,2000,g  9.0,4.0
# From MPC 75717
95P/Chiron,e,6.9403,209.2400,339.8125,13.68420,0.0194704,0.37893573,172.2123,04/29.0/2020,2000,g  6.5,2.0
# From MPEC 2017-T14
96P/Machholz,e,58.3361,94.2508,14.6342,3.027708,0.1870825,0.96135580,171.2026,04/29.0/2020,2000,g  9.0,4.0
# From MPC 77020
97P/Metcalf-Brewington,e,17.8734,184.3813,229.2090,4.786253,0.0941262,0.46138702,298.2496,04/29.0/2020,2000,g  5.5,6.0
# From MPEC 2013-H38
98P/Takamizawa,e,10.5614,114.7112,157.9113,3.799016,0.1331059,0.56220375,326.6011,04/29.0/2020,2000,g  9.0,8.0
# From MPEC 2020-H67
99P/Kowal,e,4.3379,28.1272,174.9063,6.114505,0.0651872,0.23043232,313.4958,04/29.0/2020,2000,g  4.5,6.0
# From MPEC 2013-O31
100P/Hartley,e,25.5739,37.7190,182.0028,3.431480,0.1550536,0.41269365,230.7233,04/29.0/2020,2000,g  9.0,4.0
# From MPC115887
101P/Chernykh,e,5.0528,116.2312,277.6940,5.797836,0.0706001,0.59555669,7.5884,04/29.0/2020,2000,g 12.0,4.8
# From MPC 86232
102P/Shoemaker,e,25.8739,339.3865,20.5334,3.816022,0.1322171,0.45767947,324.5152,04/29.0/2020,2000,g  6.5,8.0
# From MPEC 2018-HA5
103P/Hartley,e,13.5923,219.7274,181.2997,3.476782,0.1520330,0.69285235,168.0421,04/29.0/2020,2000,g  8.5,8.0
# From MPC100283
104P/Kowal,e,5.7628,209.1567,225.5822,3.203639,0.1718853,0.66984107,253.4590,04/29.0/2020,2000,g 16.0,4.0
# From MPC109147
105P/Singer Brewster,e,9.1739,192.4199,46.4597,3.466236,0.1527274,0.40997914,95.8949,04/29.0/2020,2000,g 11.5,6.0
# From MPC 92276
106P/Schuster,e,19.5732,49.0567,353.5636,3.764049,0.1349650,0.59461683,295.6847,04/29.0/2020,2000,g 14.0,4.8
# From MPEC 2015-M77
107P/Wilson-Harrington,e,2.7983,266.8178,95.3709,2.625981,0.2316150,0.63114702,163.6042,04/29.0/2020,2000,g  9.0,4.0
# From MPC 89313
108P/Ciffreo,e,11.4739,50.5839,354.1946,3.742548,0.1361297,0.55764066,292.1371,04/29.0/2020,2000,g  8.0,12.0
# From  105, 420
109P/Swift-Tuttle,e,113.9017,139.1068,152.8775,26.10527,0.0073894,0.96320507,73.9921,04/29.0/2020,2000,g  4.0,6.0
# From MPC 92276
110P/Hartley,e,11.7074,287.5339,167.4320,3.600835,0.1442445,0.31777222,282.4858,04/29.0/2020,2000,g  1.0,12.0
# From MPC 75718
111P/Helin-Roman-Crockett,e,4.2275,89.7632,1.2032,4.144114,0.1168306,0.10543473,311.6189,04/29.0/2020,2000,g  5.0,8.0
# From MPC118097
112P/Urata-Niijima,e,24.1905,31.8490,21.5000,3.526222,0.1488468,0.58975564,12.0618,04/29.0/2020,2000,g 14.0,6.0
# From MPEC 2015-E14
113P/Spitaler,e,5.2627,306.9171,115.5554,3.693389,0.1388566,0.43088404,254.9717,04/29.0/2020,2000,g 13.5,4.0
# From MPEC 2019-TG9
114P/Wiseman-Skiff,e,18.2723,271.0598,172.8092,3.547266,0.1475243,0.55476167,15.6261,04/29.0/2020,2000,g 11.5,6.0
# From MPC105241
115P/Maury,e,11.6739,176.0277,121.0205,4.275908,0.1114709,0.51896612,349.7683,04/29.0/2020,2000,g 10.5,6.0
# From MPC106348
116P/Wild,e,3.6044,20.9988,173.3956,3.488178,0.1512886,0.37098618,237.6147,04/29.0/2020,2000,g  2.5,10.0
# From MPEC 2015-S97
117P/Helin-Roman-Alu,e,8.7012,58.8592,222.6907,4.087488,0.1192668,0.25574484,264.7504,04/29.0/2020,2000,g  9.0,4.0
# From MPC 95735
118P/Shoemaker-Levy,e,9.2340,144.4682,309.9472,3.409606,0.1565481,0.45443460,214.9454,04/29.0/2020,2000,g 12.0,4.0
# From MPC 84628
119P/Parker-Hartley,e,7.5378,104.9374,321.4147,3.819349,0.1320444,0.40817074,252.1282,04/29.0/2020,2000,g  3.5,8.0
# From MPC 80901
120P/Mueller,e,8.4838,358.6999,36.3721,3.967765,0.1247054,0.37519408,313.5423,04/29.0/2020,2000,g 12.0,4.0
# From MPC100283
121P/Shoemaker-Holt,e,20.1641,94.1410,11.2326,4.587117,0.1003216,0.18477652,244.1756,04/29.0/2020,2000,g  6.5,8.0
# From MPC 75718
122P/de Vico,e,84.6251,79.5099,13.0240,17.63478,0.0133091,0.96229587,119.6345,04/29.0/2020,2000,g  7.5,5.2
# From MPC114608
123P/West-Hartley,e,15.3472,46.4810,103.1788,3.862607,0.1298325,0.44880558,58.2355,04/29.0/2020,2000,g  4.0,10.0
# From MPEC 2020-H67
124P/Mrkos,e,31.5128,0.3709,183.8557,3.317982,0.1630771,0.50345650,0.3440,04/29.0/2020,2000,g 13.5,2.8
# From MPEC 2015-M77
125P/Spacewatch,e,9.9876,153.1657,87.2075,3.124773,0.1784335,0.51319473,108.8694,04/29.0/2020,2000,g  9.0,4.0
# From MPC 66205
126P/IRAS,e,45.8436,357.8426,356.4953,5.642511,0.0735352,0.69592242,274.5051,04/29.0/2020,2000,g  9.0,4.0
# From MPC 84321
127P/Holt-Olmstead,e,14.2986,13.6483,6.5530,3.449393,0.1538474,0.35979440,231.6159,04/29.0/2020,2000,g 11.0,6.0
# From MPC 89014
128P/Shoemaker-Holt,e,4.3655,214.2926,210.4044,4.494562,0.1034363,0.32032719,124.6910,04/29.0/2020,2000,g  8.5,4.0
# From MPEC 2019-TG9
129P/Shoemaker-Levy,e,3.4433,184.8925,308.2666,4.280483,0.1112922,0.08391720,254.0998,04/29.0/2020,2000,g 11.0,4.0
# From MPC 78188
130P/McNaught-Hughes,e,6.0643,70.2497,245.9499,3.383817,0.1583411,0.46125326,131.0909,04/29.0/2020,2000,g 10.0,6.0
# From MPC102101
131P/Mueller,e,7.3532,214.1804,179.0496,3.681700,0.1395184,0.34354199,64.2969,04/29.0/2020,2000,g 11.0,4.0
# From MPC 92985
132P/Helin-Roman-Alu,e,5.3786,174.1671,216.4001,3.881466,0.1288874,0.56562016,287.4189,04/29.0/2020,2000,g 11.0,6.0
# From MPC 94676
133P/Elst-Pizarro,e,1.3891,160.1292,131.6585,3.163270,0.1751861,0.15722743,102.5954,04/29.0/2020,2000,g 15.4,2.0
# From MPC 89012
134P/Kowal-Vavrova,e,4.3451,202.0835,18.8616,6.256677,0.0629779,0.58698987,136.6488,04/29.0/2020,2000,g 11.5,4.0
# From MPEC 2015-E14
135P/Shoemaker-Levy,e,6.0615,213.0537,22.2305,3.804458,0.1328204,0.29558851,265.9737,04/29.0/2020,2000,g  9.0,4.0
# From MPC101100
136P/Mueller,e,9.4232,137.4420,224.8962,4.195942,0.1146727,0.29200724,163.8634,04/29.0/2020,2000,g 11.0,4.0
# From MPEC 2020-H67
137P/Shoemaker-Levy,e,4.8534,233.0711,141.0070,4.520433,0.1025496,0.57314636,51.5389,04/29.0/2020,2000,g 11.0,4.0
# From MPEC 2016-U66
138P/Shoemaker-Levy,e,10.0907,309.3304,95.5907,3.623593,0.1428878,0.53018966,51.7627,04/29.0/2020,2000,g 15.0,6.0
# From MPEC 2020-H67
139P/Vaisala-Oterma,e,2.3333,242.2015,165.8165,4.525424,0.1023800,0.24624520,89.2178,04/29.0/2020,2000,g  9.5,4.0
# From MPEC 2015-E14
